[{"OBJECT_NAME":"SITRO-AIS 5 (KATYS)","OBJECT_ID":"2023-091L","EPOCH":"2026-03-09T22:36:44.932608","MEAN_MOTION":15.27079182,"ECCENTRICITY":0.00133776,"INCLINATION":97.5176,"RA_OF_ASC_NODE":132.0172,"ARG_OF_PERICENTER":94.5677,"MEAN_ANOMALY":265.709,"EPHEMERIS_TYPE":0,"CLASSIFICATION_TYPE":"U","NORAD_CAT_ID":57176,"ELEMENT_SET_NO":999,"REV_AT_EPOCH":14918,"BSTAR":0.00057530772,"MEAN_MOTION_DOT":0.00015262,"MEAN_MOTION_DDOT":0},{"OBJECT_NAME":"STARLINK-30433","OBJECT_ID":"2023-144Q","EPOCH":"2026-03-08T23:31:32.787840","MEAN_MOTION":15.2675191,"ECCENTRICITY":0.00024097,"INCLINATION":43.0017,"RA_OF_ASC_NODE":288.8031,"ARG_OF_PERICENTER":266.9439,"MEAN_ANOMALY":93.1137,"EPHEMERIS_TYPE":0,"CLASSIFICATION_TYPE":"U","NORAD_CAT_ID":57878,"ELEMENT_SET_NO":999,"REV_AT_EPOCH":13753,"BSTAR":-3.5814757e-5,"MEAN_MOTION_DOT":-1.221e-5,"MEAN_MOTION_DDOT":0}]
